{"title":"Egypt","version":"2.1.0","type":"FeatureCollection","copyright":"Copyright (c) 2023 Highsoft AS, Based on data from Natural Earth","copyrightShort":"Natural Earth","copyrightUrl":"http://www.naturalearthdata.com","crs":{"type":"name","properties":{"name":"urn:ogc:def:crs:EPSG:22992"}},"features":[{"type":"Feature","id":"EG.5847","properties":{"hc-group":"admin1","hc-middle-x":0.52,"hc-middle-y":0.24,"hc-key":"eg-5847","hc-a2":"NU","labelrank":"20","hasc":"-99","alt-name":null,"woe-id":"-99","subregion":null,"fips":null,"postal-code":null,"name":null,"country":"Egypt","type-en":null,"region":null,"longitude":"36.6461","woe-name":null,"latitude":"22.2634","woe-label":null,"type":null},"geometry":{"type":"Polygon","coordinates":[[[24.44699939537281,31.622147521272446],[24.44699950815787,31.622147700849343],[24.4469992731257,31.62214756096821],[24.446998778829673,31.622147540603066],[24.44699939537281,31.622147521272446]]]}},{"type":"Feature","id":"EG.BA","properties":{"hc-group":"admin1","hc-middle-x":0.56,"hc-middle-y":0.72,"hc-key":"eg-ba","hc-a2":"BA","labelrank":"6","hasc":"EG.BA","alt-name":"Mar Rojo|Mar Vermelho|Mer Rouge|Red Sea","woe-id":"2345224","subregion":null,"fips":"EG02","postal-code":"BA","name":"Al Bahr al Ahmar","country":"Egypt","type-en":"Governorate","region":null,"longitude":"33.7267","woe-name":"Al Bahr al Ahmar","latitude":"25.2164","woe-label":"Al Bahr al Ahmar, EG, Egypt","type":"Muhafazah"},"geometry":{"type":"MultiPolygon","coordinates":[[[[24.44699123718948,31.6221259629224],[24.44699146003447,31.62212627593942],[24.44699075945545,31.62212587697167],[24.446991025244706,31.622125834452596],[24.44699123718948,31.6221259629224]]],[[[24.446984669725616,31.62211769773218],[24.446984468974833,31.622118428437904],[24.446984728674895,31.6221188966756],[24.446985408822492,31.622119585900588],[24.446985617835004,31.622120434828812],[24.44698628328204,31.622120908646494],[24.446986868001257,31.622121935370433],[24.446987905359002,31.622122980312515],[24.44698788937151,31.622123122588295],[24.446988429198598,31.62212334461767],[24.44698877844949,31.622123643706797],[24.44698914885737,31.62212449073186],[24.446988595836892,31.622124201583333],[24.44698884571647,31.62212489418595],[24.446989038732738,31.622125037012303],[24.446988621515526,31.622125194383763],[24.44698891677944,31.622125751336405],[24.44698929556966,31.62212597017668],[24.446989569469416,31.622126745788574],[24.446990243735115,31.622127179175102],[24.446990272708835,31.622127870613696],[24.446991083356632,31.622129251399215],[24.446990856858143,31.622129244836277],[24.446990673459574,31.62213006842901],[24.44699108946337,31.622130437397736],[24.44699152519038,31.62213137467134],[24.446991885199033,31.622131945182325],[24.44699266365595,31.622133528736953],[24.446993705319606,31.622134936761068],[24.44699413358839,31.622135725439797],[24.44699436418109,31.622136437491196],[24.446994676866332,31.622136831799153],[24.446994985539646,31.622137537653376],[24.446995897428955,31.62213909231013],[24.44699592518046,31.62213946171126],[24.446996265612828,31.6221398012315],[24.446997121364525,31.62214164430517],[24.446997932936533,31.62214224831099],[24.44699811348076,31.62214273802254],[24.446998951366105,31.622143307609573],[24.44699903281961,31.622143592896485],[24.4469996322999,31.622143731118346],[24.44699979563441,31.622144041068204],[24.44699944222901,31.62214414040003],[24.446998535371065,31.622143787018516],[24.44699836544649,31.622144079792314],[24.446998299345868,31.622144679448823],[24.446998481751358,31.622144888167455],[24.44699832524496,31.622146178220504],[24.44699859268841,31.62214662130374],[24.446998738105126,31.622147610054014],[24.446999148304872,31.622148316030188],[24.446999343191298,31.62214902624127],[24.447000341759615,31.62215002829847],[24.44700086968479,31.622150249714384],[24.447002017595075,31.622150487751988],[24.447002425998207,31.622150795000476],[24.447002617369254,31.622151300602155],[24.447003232625555,31.6221516389546],[24.447003285615082,31.62215198921366],[24.447003944679466,31.62215229915971],[24.4470047467161,31.622152953781114],[24.447004982033263,31.622152919912935],[24.447005724343402,31.622153489684727],[24.447005652002332,31.622153838595022],[24.44697640135089,31.622152857426777],[24.446976957087912,31.622152344334562],[24.44697810778795,31.622151948788645],[24.44697846577976,31.622151614600774],[24.446978923078195,31.62215156661997],[24.446979491650136,31.622151125739144],[24.44697989631324,31.622150298218237],[24.446980172855923,31.622150102932242],[24.446980972525743,31.622150706324735],[24.44698148073205,31.622150783624637],[24.446982191701764,31.62215061072896],[24.44698331192525,31.62214979964505],[24.44698353849288,31.622149550676312],[24.44698359254899,31.62214903728104],[24.446983937489904,31.62214854909935],[24.446984734935644,31.622149014388114],[24.44698556521582,31.622149098066224],[24.446986315126555,31.62214972955834],[24.446986547144274,31.622149572863187],[24.446986348673505,31.622148913574403],[24.44698602480306,31.62214850846854],[24.44698524019225,31.622148115391173],[24.446985178958553,31.622147882253437],[24.44698578710623,31.622147218541233],[24.44698606056104,31.622146558021843],[24.44698572112624,31.622145610378983],[24.44698589907916,31.622145118701464],[24.4469858158291,31.622144434686863],[24.446985499416936,31.62214417817588],[24.446985093661155,31.622143324218268],[24.44698499284296,31.622142465534235],[24.44698524098632,31.62214165549983],[24.446985862828274,31.622140966939888],[24.44698593753601,31.622140669258666],[24.446985419712103,31.622139625539667],[24.44698538901528,31.62213870403049],[24.446985263248443,31.62213811492804],[24.446984910482154,31.622137611229498],[24.44698387578029,31.622136867955877],[24.44698355477744,31.622136422112177],[24.44698349246406,31.62213578006232],[24.44698372526772,31.62213535765096],[24.44698484635037,31.622134449507897],[24.44698524613762,31.62213360640353],[24.446985213078545,31.62213305785416],[24.446985030742177,31.62213259360375],[24.44698444100906,31.622132062359864],[24.446984037196778,31.622131944444067],[24.44698327818691,31.622131951321204],[24.446982030836512,31.6221323623287],[24.446981293039613,31.622131389043627],[24.446980433073428,31.62213104830018],[24.446980101960733,31.622130576381885],[24.44698008001782,31.622130294162115],[24.446979698498218,31.622129604996207],[24.4469786410676,31.62212884521902],[24.44697797274435,31.62212756376154],[24.44697727531796,31.62212695030654],[24.44697681069957,31.622126338629016],[24.446975536595392,31.622125772112724],[24.446975333896802,31.622125342587797],[24.446975387020085,31.62212475759457],[24.446975509979723,31.622124283525547],[24.4469752791626,31.6221226413141],[24.44697503208159,31.62212216350534],[24.44697496202498,31.62212154660994],[24.446975536470017,31.62212051318993],[24.446975788409414,31.62211930982685],[24.446976083876166,31.62211867599552],[24.446977172046466,31.622117556617283],[24.446977536058277,31.622116967204384],[24.446977575344704,31.622116493933564],[24.4469784177513,31.622117508385145],[24.446978755959424,31.622117709801735],[24.446980602798416,31.622118285393807],[24.446980817252268,31.622118378217998],[24.446982123184537,31.62211832286851],[24.446984175071318,31.622117682459244],[24.446984669725616,31.62211769773218]]]]}},{"type":"Feature","id":"EG.JS","properties":{"hc-group":"admin1","hc-middle-x":0.54,"hc-middle-y":0.4,"hc-key":"eg-js","hc-a2":"JS","labelrank":"6","hasc":"EG.JS","alt-name":"Janub Sina|Sina al-Janubiyah|Sina' al-Jan?b?yah|Sinai al Jan?b?a|South Sinai|Sud Sina?","woe-id":"2345247","subregion":null,"fips":"EG26","postal-code":"JS","name":"Janub Sina'","country":"Egypt","type-en":"Governorate","region":null,"longitude":"33.7687","woe-name":"Janub Sina'","latitude":"28.925","woe-label":"Janub Sina', EG, Egypt","type":"Muhafazah"},"geometry":{"type":"MultiPolygon","coordinates":[[[[24.446994119839665,31.622123617468844],[24.44699449870335,31.622124004966196],[24.446994122711622,31.62212400091982],[24.44699386710131,31.62212381398173],[24.446994119839665,31.622123617468844]]],[[[24.446996122255047,31.62211621304565],[24.446995335865488,31.622117117995987],[24.446995280734168,31.62211764666796],[24.446994986269427,31.622118096565586],[24.446995022412082,31.62211868615955],[24.446994818141544,31.622118788067034],[24.44699471920659,31.62211976933422],[24.44699436444538,31.622120481880874],[24.446993815881953,31.622121317317383],[24.44699346599645,31.62212204544748],[24.446993487438466,31.622122419634113],[24.44699369099653,31.62212275209992],[24.4469935296056,31.622123178191863],[24.44699351304814,31.62212366796628],[24.446993039118915,31.62212403706448],[24.446992672524612,31.622124493465968],[24.44699229839856,31.6221246326155],[24.446991672963524,31.622124523720178],[24.446990861892655,31.62212382774745],[24.44699067110049,31.622123823024783],[24.446989856229248,31.622123096191974],[24.446989123593035,31.62212196474103],[24.446988468471815,31.622121598780378],[24.446988151269366,31.62212118379679],[24.44698750776088,31.62212056801006],[24.446987313664902,31.62212001627157],[24.446987505527996,31.622119581528736],[24.446987274222863,31.622119303850614],[24.446987234206443,31.622118514739476],[24.446987099910373,31.622118216507637],[24.446986229255607,31.622117348810693],[24.44698587426965,31.62211713119726],[24.44698555175963,31.622116537065406],[24.446985564806123,31.622116266870414],[24.446985095100437,31.6221159820159],[24.446985075018798,31.622115418803244],[24.4469849211508,31.622115313769516],[24.44698500940595,31.622114653926413],[24.446984826784593,31.62211436342533],[24.446984826784593,31.62211436342533],[24.446985888503306,31.62211378952921],[24.4469872867848,31.622113779824975],[24.446990499640947,31.622114379824694],[24.44699178098744,31.622115013153284],[24.4469927946056,31.622115377147892],[24.446994007549527,31.622115879183347],[24.446996122255047,31.62211621304565]]]]}},{"type":"Feature","id":"EG.UQ","properties":{"hc-group":"admin1","hc-middle-x":0.52,"hc-middle-y":0.61,"hc-key":"eg-uq","hc-a2":"UQ","labelrank":"9","hasc":"EG.UQ","alt-name":"al-Aq?ur|Aqsur|Uqsur","woe-id":"56120896","subregion":null,"fips":"EG28","postal-code":"UQ","name":"Luxor","country":"Egypt","type-en":"Governorate","region":null,"longitude":"32.6501","woe-name":null,"latitude":"25.705","woe-label":null,"type":"Muhafazah"},"geometry":{"type":"Polygon","coordinates":[[[24.446983745910646,31.622134724987355],[24.446983569028742,31.622134777199378],[24.446983709055562,31.622134569766686],[24.446983813306982,31.62213461602541],[24.446983745910646,31.622134724987355]]]}},{"type":"Feature","id":"EG.IS","properties":{"hc-group":"admin1","hc-middle-x":0.55,"hc-middle-y":0.52,"hc-key":"eg-is","hc-a2":"IS","labelrank":"7","hasc":"EG.IS","alt-name":"As Ismailiyah|Ismailia|Ismaïlia|Isma'iliya","woe-id":"2345229","subregion":null,"fips":"EG07","postal-code":"IS","name":"Al Isma`iliyah","country":"Egypt","type-en":"Governorate","region":null,"longitude":"32.2811","woe-name":"Al Isma`iliyah","latitude":"30.6765","woe-label":"Al Isma'iliyah, EG, Egypt","type":"Muhafazah"},"geometry":{"type":"Polygon","coordinates":[[[24.44698261651176,31.6221078355725],[24.446982634006474,31.622107841584874],[24.446982619020865,31.622107799926873],[24.44698305072265,31.622107776180336],[24.44698336662938,31.622107700469385],[24.44698347554055,31.622107680529123],[24.446984890034155,31.622108458709178],[24.446985027578112,31.62211083205499],[24.446985453622638,31.622111482630032],[24.446985692101013,31.62211208265233],[24.44698473720752,31.622111987441013],[24.446983989313953,31.622112260647814],[24.446982906865795,31.622112025983984],[24.446981081183864,31.622111998327924],[24.446980892322085,31.622111457080635],[24.446980729842714,31.622110625882822],[24.44698058328614,31.622110332129814],[24.44698090557581,31.62211042029041],[24.446981618410867,31.62211039059059],[24.446982278899902,31.62210983179018],[24.44698245620928,31.62210951895419],[24.446982422649256,31.6221090623717],[24.446982844163344,31.62210841970466],[24.44698285104284,31.622108067420534],[24.44698261651176,31.6221078355725]]]}},{"type":"Feature","id":"EG.GH","properties":{"hc-group":"admin1","hc-middle-x":0.49,"hc-middle-y":0.48,"hc-key":"eg-gh","hc-a2":"GH","labelrank":"6","hasc":"EG.GH","alt-name":"al-Garb?yah|El Gharbiya|Garbia|Gharbieh|Gharb?ya|Gharbia","woe-id":"2345227","subregion":null,"fips":"EG05","postal-code":"GH","name":"Al Gharbiyah","country":"Egypt","type-en":"Governorate","region":null,"longitude":"31.0287","woe-name":"Al Gharbiyah","latitude":"30.8504","woe-label":"Al Gharbiyah, EG, Egypt","type":"Muhafazah"},"geometry":{"type":"Polygon","coordinates":[[[24.44697798303457,31.62211019300267],[24.44697708470629,31.62210954875043],[24.446976720258302,31.622109550409668],[24.44697641144704,31.622109355618868],[24.446975737976185,31.62210950489373],[24.446975761633553,31.622109168806425],[24.446975557073667,31.622109020274394],[24.446975881583082,31.6221088223499],[24.44697568375588,31.62210798421959],[24.446976111514765,31.622108016487616],[24.44697712957227,31.62210780831209],[24.446977267159017,31.62210738099329],[24.44697814992294,31.622107482708543],[24.44697797354638,31.622107867142475],[24.446978413565823,31.622107894931705],[24.446978179613485,31.62210816396267],[24.446977963017687,31.622108950069475],[24.446978111945224,31.62210971924035],[24.44697800318091,31.622110076494767],[24.44697798303457,31.62211019300267]]]}},{"type":"Feature","id":"EG.MF","properties":{"hc-group":"admin1","hc-middle-x":0.46,"hc-middle-y":0.31,"hc-key":"eg-mf","hc-a2":"MF","labelrank":"6","hasc":"EG.MF","alt-name":"Menoufieh|Menufia|Men?f?ya|Min?f?ya|Munufia|Menoufia|Minufia","woe-id":"2345231","subregion":null,"fips":"EG09","postal-code":"MF","name":"Al Minufiyah","country":"Egypt","type-en":"Governorate","region":null,"longitude":"31.0029","woe-name":"Al Minufiyah","latitude":"30.5076","woe-label":"Al Minufiyah, EG, Egypt","type":"Muhafazah"},"geometry":{"type":"Polygon","coordinates":[[[24.446975737976185,31.62210950489373],[24.44697641144704,31.622109355618868],[24.446976720258302,31.622109550409668],[24.44697708470629,31.62210954875043],[24.44697798303457,31.62211019300267],[24.446977847525062,31.622110421111003],[24.446977364202876,31.622110753950082],[24.446977192844543,31.62211106709277],[24.446977182026455,31.622111899580283],[24.44697731682343,31.622112105845208],[24.44697694018397,31.62211185645152],[24.44697649528879,31.62211181307888],[24.446976218595037,31.622111246861895],[24.44697579535341,31.622111235269497],[24.44697604701642,31.62211105403335],[24.446975878521293,31.62211090224938],[24.446975737976185,31.62210950489373]]]}},{"type":"Feature","id":"EG.QH","properties":{"hc-group":"admin1","hc-middle-x":0.48,"hc-middle-y":0.54,"hc-key":"eg-qh","hc-a2":"QH","labelrank":"9","hasc":"EG.QH","alt-name":"Cairo|El Cairo|El Qahira|Le Caire","woe-id":"2345233","subregion":null,"fips":"EG11","postal-code":"QH","name":"Al Qahirah","country":"Egypt","type-en":"Governorate","region":null,"longitude":"31.5788","woe-name":"Al Qahirah","latitude":"29.9801","woe-label":"Al Qahirah, EG, Egypt","type":"Muhafazah"},"geometry":{"type":"Polygon","coordinates":[[[24.446980892322085,31.622111457080635],[24.446981081183864,31.622111998327924],[24.446981223167185,31.62211379950348],[24.446981155917747,31.62211424577958],[24.446977915534895,31.622114206538566],[24.44697794141199,31.622113584366137],[24.446977645215355,31.62211295581552],[24.446977759857305,31.622112430210734],[24.446978808171075,31.622112131601902],[24.446979589909645,31.622112141228325],[24.446980892322085,31.622111457080635]]]}},{"type":"Feature","id":"EG.QL","properties":{"hc-group":"admin1","hc-middle-x":0.36,"hc-middle-y":0.56,"hc-key":"eg-ql","hc-a2":"QL","labelrank":"6","hasc":"EG.QL","alt-name":"Caliubia|Kalioubieh|Kalioubiya|Qaliyubia|Qalyubiya|Kalyoubia|Kalyubia","woe-id":"2345234","subregion":null,"fips":"EG12","postal-code":"QL","name":"Al Qalyubiyah","country":"Egypt","type-en":"Governorate","region":null,"longitude":"31.325","woe-name":"Al Qalyubiyah","latitude":"30.2725","woe-label":"Al Qalyobiyah, EG, Egypt","type":"Muhafazah"},"geometry":{"type":"Polygon","coordinates":[[[24.446979589909645,31.622112141228325],[24.446978808171075,31.622112131601902],[24.446977759857305,31.622112430210734],[24.44697767575225,31.622112267444095],[24.44697731682343,31.622112105845208],[24.446977182026455,31.622111899580283],[24.446977192844543,31.62211106709277],[24.446977364202876,31.622110753950082],[24.446977847525062,31.622110421111003],[24.44697798303457,31.62211019300267],[24.44697800318091,31.622110076494767],[24.446978210966797,31.62211017919671],[24.446978498051102,31.622110173550155],[24.44697815662135,31.622110442152483],[24.446978045347922,31.622110835052517],[24.446978567758002,31.62211164391542],[24.446979589909645,31.622112141228325]]]}},{"type":"Feature","id":"EG.SQ","properties":{"hc-group":"admin1","hc-middle-x":0.44,"hc-middle-y":0.48,"hc-key":"eg-sq","hc-a2":"SQ","labelrank":"6","hasc":"EG.SQ","alt-name":"Charkieh|Sharqia|Sharq?ya|Sharquia|Sharkia","woe-id":"2345236","subregion":null,"fips":"EG14","postal-code":"SQ","name":"Ash Sharqiyah","country":"Egypt","type-en":"Governorate","region":null,"longitude":"31.8817","woe-name":"Ash Sharqiyah","latitude":"30.8161","woe-label":"Ash Sharquiyah, EG, Egypt","type":"Muhafazah"},"geometry":{"type":"MultiPolygon","coordinates":[[[[24.446980892322085,31.622111457080635],[24.446979589909645,31.622112141228325],[24.446978567758002,31.62211164391542],[24.446978045347922,31.622110835052517],[24.44697815662135,31.622110442152483],[24.446978498051102,31.622110173550155],[24.44697865083938,31.62210986967178],[24.44697859899436,31.622109248604275],[24.446978915043598,31.622109086018686],[24.446979545855168,31.622109118530595],[24.446979906429323,31.622108917354158],[24.446980813200327,31.622107829512238],[24.446981665418676,31.62210777122127],[24.446982180720212,31.62210757801943],[24.44698226245866,31.622107689557037],[24.44698261651176,31.6221078355725],[24.44698285104284,31.622108067420534],[24.446982844163344,31.62210841970466],[24.446982422649256,31.6221090623717],[24.44698245620928,31.62210951895419],[24.446982278899902,31.62210983179018],[24.446981618410867,31.62211039059059],[24.44698090557581,31.62211042029041],[24.44698058328614,31.622110332129814],[24.446980729842714,31.622110625882822],[24.446980892322085,31.622111457080635]]],[[[24.44698336662938,31.622107700469385],[24.44698305072265,31.622107776180336],[24.446982619020865,31.622107799926873],[24.44698289448806,31.622107619917564],[24.44698327915581,31.622107670407498],[24.44698336849066,31.62210741947649],[24.44698337408327,31.622107424875445],[24.44698336662938,31.622107700469385]]]]}},{"type":"Feature","id":"EG.SS","properties":{"hc-group":"admin1","hc-middle-x":0.54,"hc-middle-y":0.53,"hc-key":"eg-ss","hc-a2":"SS","labelrank":"6","hasc":"EG.SS","alt-name":"Shamal Sina|Nord Sinaï|North Sinai|Sina ash-Sham?l?yah|Sinai ash Sham?l?ya","woe-id":"2345248","subregion":null,"fips":"EG32","postal-code":"SS","name":"Shamal Sina'","country":"Egypt","type-en":"Governorate","region":null,"longitude":"33.6723","woe-name":"Shamal Sina'","latitude":"30.5071","woe-label":"Shamal Sina', EG, Egypt","type":"Muhafazah"},"geometry":{"type":"Polygon","coordinates":[[[24.446996122255047,31.62211621304565],[24.446994007549527,31.622115879183347],[24.4469927946056,31.622115377147892],[24.44699178098744,31.622115013153284],[24.446990499640947,31.622114379824694],[24.4469872867848,31.622113779824975],[24.446985888503306,31.62211378952921],[24.446985772993248,31.622113563815493],[24.44698576065049,31.622112551259587],[24.446985692101013,31.62211208265233],[24.446985453622638,31.622111482630032],[24.446985027578112,31.62211083205499],[24.446984890034155,31.622108458709178],[24.446984902290325,31.622108030041566],[24.44698490264877,31.62210802494934],[24.4469857198777,31.62210795463356],[24.446987473278753,31.622107227290435],[24.446988259750533,31.622107339374857],[24.446988967282348,31.62210755471556],[24.44698942401058,31.62210785423334],[24.44699016538305,31.622107928218394],[24.446991212478906,31.622107731760817],[24.44699218937996,31.622107429471274],[24.446992970038767,31.62210703018547],[24.446993087699504,31.6221072253458],[24.446993561503838,31.622108639877528],[24.4469942577947,31.6221103725185],[24.44699448574021,31.622111631278987],[24.4469948122622,31.622111913864533],[24.446995438932696,31.622113617363787],[24.44699546324227,31.62211395081257],[24.44699585301059,31.62211494704593],[24.446995947519408,31.622115810515485],[24.446996122255047,31.62211621304565]]]}},{"type":"Feature","id":"EG.SW","properties":{"hc-group":"admin1","hc-middle-x":0.3,"hc-middle-y":0.34,"hc-key":"eg-sw","hc-a2":"SW","labelrank":"9","hasc":"EG.SW","alt-name":"El Suweiz|Es Suweis|Suez","woe-id":"2345237","subregion":null,"fips":"EG15","postal-code":"SW","name":"As Suways","country":"Egypt","type-en":"Governorate","region":null,"longitude":"32.1523","woe-name":"As Suways","latitude":"29.6098","woe-label":"As Suways, EG, Egypt","type":"Muhafazah"},"geometry":{"type":"Polygon","coordinates":[[[24.446984826784593,31.62211436342533],[24.44698459462007,31.62211418280631],[24.446984713351757,31.622113938501137],[24.44698445601833,31.622113521492455],[24.446984172160004,31.62211348130895],[24.446983929531545,31.62211370389642],[24.44698402740439,31.622114010472394],[24.4469834971216,31.622114586205036],[24.446983176058488,31.622115244270717],[24.446983412096813,31.622115624406884],[24.446984236861887,31.6221162955319],[24.44698439854659,31.622116544068266],[24.446984669725616,31.62211769773218],[24.446984175071318,31.622117682459244],[24.446982123184537,31.62211832286851],[24.446980817252268,31.622118378217998],[24.446980602798416,31.622118285393807],[24.446981163591946,31.622114476156863],[24.446981155917747,31.62211424577958],[24.446981223167185,31.62211379950348],[24.446981081183864,31.622111998327924],[24.446982906865795,31.622112025983984],[24.446983989313953,31.622112260647814],[24.44698473720752,31.622111987441013],[24.446985692101013,31.62211208265233],[24.44698576065049,31.622112551259587],[24.446985772993248,31.622113563815493],[24.446985888503306,31.62211378952921],[24.446984826784593,31.62211436342533],[24.446984826784593,31.62211436342533]]]}},{"type":"Feature","id":"EG.DQ","properties":{"hc-group":"admin1","hc-middle-x":0.27,"hc-middle-y":0.5,"hc-key":"eg-dq","hc-a2":"DQ","labelrank":"6","hasc":"EG.DQ","alt-name":"Al Daqahliyah|Dacahlia|Dagahlia|Dakahlieh|Dakahliya|Dakalieh|Daqal?ya|Dakahlia|Dekahlia","woe-id":"2345223","subregion":null,"fips":"EG01","postal-code":"DQ","name":"Ad Daqahliyah","country":"Egypt","type-en":"Governorate","region":null,"longitude":"31.4929","woe-name":"Ad Daqahliyah","latitude":"31.0304","woe-label":"Ad Daqahliyah, EG, Egypt","type":"Muhafazah"},"geometry":{"type":"MultiPolygon","coordinates":[[[[24.446983244732017,31.622106886695292],[24.44698300123981,31.62210678215305],[24.446983249391792,31.622106820496278],[24.44698324688269,31.62210685614191],[24.446983244732017,31.622106886695292]]],[[[24.44698094095783,31.622106778180722],[24.44698157822576,31.622107143221253],[24.4469821282317,31.62210713579349],[24.446982180720212,31.62210757801943],[24.446981665418676,31.62210777122127],[24.446980813200327,31.622107829512238],[24.446979906429323,31.622108917354158],[24.446979545855168,31.622109118530595],[24.446978915043598,31.622109086018686],[24.44697859899436,31.622109248604275],[24.44697865083938,31.62210986967178],[24.446978498051102,31.622110173550155],[24.446978210966797,31.62211017919671],[24.44697800318091,31.622110076494767],[24.446978111945224,31.62210971924035],[24.446977963017687,31.622108950069475],[24.446978179613485,31.62210816396267],[24.446978413565823,31.622107894931705],[24.44697797354638,31.622107867142475],[24.44697814992294,31.622107482708543],[24.446978413345533,31.622107388960472],[24.44697840042846,31.622106299714385],[24.44697829086512,31.62210565011856],[24.446978796773646,31.622105420657675],[24.44697963802706,31.622105857540074],[24.44697987391849,31.6221059003621],[24.446979504383222,31.622106228844338],[24.446980135916018,31.622106675360584],[24.446980433827097,31.622106685604138],[24.44697992225688,31.622107165197804],[24.44698003862632,31.622107293852398],[24.44698085248235,31.6221069320526],[24.44698094095783,31.622106778180722]]],[[[24.44698239860286,31.622106434229533],[24.446982423123956,31.622106425271927],[24.446982454312995,31.622106406436576],[24.446982965533497,31.622106780312773],[24.44698239860286,31.622106434229533]]]]}},{"type":"Feature","id":"EG.BS","properties":{"hc-group":"admin1","hc-middle-x":0.45,"hc-middle-y":0.55,"hc-key":"eg-bs","hc-a2":"BS","labelrank":"9","hasc":"EG.BS","alt-name":"Bur Said|Canal|Port Said|Port-Saïd","woe-id":"2345241","subregion":null,"fips":"EG19","postal-code":"BS","name":"Bur Sa`id","country":"Egypt","type-en":"Governorate","region":null,"longitude":"32.4293","woe-name":"Bur Sa`id","latitude":"31.1245","woe-label":"Bur Sa'id, EG, Egypt","type":"Muhafazah"},"geometry":{"type":"Polygon","coordinates":[[[24.446984890034155,31.622108458709178],[24.44698347554055,31.622107680529123],[24.44698336662938,31.622107700469385],[24.44698337408327,31.622107424875445],[24.44698336849066,31.62210741947649],[24.446983419251648,31.622107207443058],[24.446983244732017,31.622106886695292],[24.44698324688269,31.62210685614191],[24.446983249391792,31.622106820496278],[24.44698361821455,31.622106926387318],[24.44698490264877,31.62210802494934],[24.446984902290325,31.622108030041566],[24.446984890034155,31.622108458709178]]]}},{"type":"Feature","id":"EG.DT","properties":{"hc-group":"admin1","hc-middle-x":0.35,"hc-middle-y":0.22,"hc-key":"eg-dt","hc-a2":"DT","labelrank":"9","hasc":"EG.DT","alt-name":"Damietta|Damiette|Dumi?t","woe-id":"2345242","subregion":null,"fips":"EG20","postal-code":"DT","name":"Dumyat","country":"Egypt","type-en":"Governorate","region":null,"longitude":"31.7285","woe-name":"Dumyat","latitude":"31.4067","woe-label":"Dumyat, EG, Egypt","type":"Muhafazah"},"geometry":{"type":"MultiPolygon","coordinates":[[[[24.44698094095783,31.622106778180722],[24.44698085248235,31.6221069320526],[24.44698003862632,31.622107293852398],[24.44697992225688,31.622107165197804],[24.446980433827097,31.622106685604138],[24.446980135916018,31.622106675360584],[24.446979504383222,31.622106228844338],[24.44697987391849,31.6221059003621],[24.446980768295134,31.622105752251247],[24.446981230037174,31.622105556288975],[24.446981604236594,31.622105585796554],[24.446981604236594,31.622105585796554],[24.44698125642394,31.622105690527295],[24.446981283816953,31.622106065020652],[24.44698100569815,31.62210636755024],[24.44698094095783,31.622106778180722]]],[[[24.446982423123956,31.622106425271927],[24.44698239860286,31.622106434229533],[24.446981970412082,31.62210623839667],[24.44698197951571,31.622106024216247],[24.44698163399185,31.622105587330122],[24.44698163399185,31.622105587330122],[24.44698163399185,31.622105587330122],[24.446981758605503,31.622105598863392],[24.446982049710495,31.622106130048174],[24.446982454312995,31.622106406436576],[24.446982423123956,31.622106425271927]]],[[[24.446981604236594,31.622105585796554],[24.446981628757687,31.62210557683894],[24.44698163399185,31.622105587330122],[24.44698163399185,31.622105587330122],[24.44698163399185,31.622105587330122],[24.446981604236594,31.622105585796554],[24.446981604236594,31.622105585796554]]]]}},{"type":"Feature","id":"EG.BH","properties":{"hc-group":"admin1","hc-middle-x":0.54,"hc-middle-y":0.58,"hc-key":"eg-bh","hc-a2":"BH","labelrank":"6","hasc":"EG.BH","alt-name":"Beheira|Behera|El Buhayra|Béhéra","woe-id":"2345225","subregion":null,"fips":"EG03","postal-code":"BH","name":"Al Buhayrah","country":"Egypt","type-en":"Governorate","region":null,"longitude":"30.2522","woe-name":"Al Buhayrah","latitude":"30.5945","woe-label":"Al Buhayrah, EG, Egypt","type":"Muhafazah"},"geometry":{"type":"Polygon","coordinates":[[[24.44697568375588,31.62210798421959],[24.446975881583082,31.6221088223499],[24.446975557073667,31.622109020274394],[24.446975761633553,31.622109168806425],[24.446975737976185,31.62210950489373],[24.446975878521293,31.62211090224938],[24.44697604701642,31.62211105403335],[24.44697579535341,31.622111235269497],[24.446973318156527,31.62211291167435],[24.446973084420083,31.622113262487744],[24.44696990704163,31.622111309979072],[24.44696971101102,31.62211087057638],[24.44697006419607,31.622110265273378],[24.44697030431542,31.62211007833157],[24.446971154452203,31.62210979506233],[24.446971517535516,31.622109558240307],[24.446971805906756,31.622109194910692],[24.446971690897694,31.62210887723008],[24.44697119845889,31.622108151683147],[24.44697141391031,31.62210763638479],[24.44697127523955,31.622107230602666],[24.446971981475727,31.622106955248913],[24.446972469526774,31.622106300679125],[24.44697283942485,31.622106391293503],[24.4469727787699,31.622106659034753],[24.446973053593638,31.622106657867004],[24.446973412876545,31.62210639018486],[24.446972869180115,31.622106392827057],[24.44697356924928,31.622106035384178],[24.446973810940566,31.62210531700998],[24.446974029985082,31.62210559916688],[24.446974294202327,31.622106088080244],[24.446974584586055,31.62210620526069],[24.446974428070803,31.622106646936043],[24.44697456810193,31.622106863692153],[24.446974964529257,31.622107001670187],[24.4469754003942,31.622107427880337],[24.44697568375588,31.62210798421959]]]}},{"type":"Feature","id":"EG.MT","properties":{"hc-group":"admin1","hc-middle-x":0.42,"hc-middle-y":0.53,"hc-key":"eg-mt","hc-a2":"MT","labelrank":"6","hasc":"EG.MT","alt-name":"Mars? Matr?h|Mersa Matruh|Western Desert|Matrouh","woe-id":"2345244","subregion":null,"fips":"EG22","postal-code":"MT","name":"Matruh","country":"Egypt","type-en":"Governorate","region":null,"longitude":"27.5083","woe-name":"Matruh","latitude":"29.6121","woe-label":"Matruh, EG, Egypt","type":"Muhafazah"},"geometry":{"type":"Polygon","coordinates":[[[24.44696971101102,31.62211087057638],[24.44696990704163,31.622111309979072],[24.446973084420083,31.622113262487744],[24.446968972048243,31.622115089708284],[24.446965411483042,31.622117732417436],[24.446964318575137,31.62211832514868],[24.446960171775086,31.62211894446792],[24.44695977635394,31.622119046744867],[24.446959349316167,31.622119428481135],[24.446956704651104,31.62212331430059],[24.446944682085817,31.62212229091145],[24.446944586868966,31.62212228600395],[24.44694555918168,31.622114751829763],[24.446945509345014,31.622114187083547],[24.446945203466356,31.62211327183435],[24.446945298674798,31.622112428364233],[24.44694504341887,31.62211181214505],[24.446945168097486,31.622111143957838],[24.4469447116461,31.62210982231305],[24.446944743120223,31.622109629728428],[24.446945263794294,31.622108935954504],[24.446946058359313,31.622108169414897],[24.446946687292606,31.622106786164682],[24.44694631293805,31.622105570965296],[24.446946250624915,31.62210492891546],[24.446946416382307,31.622103761996286],[24.44694730466114,31.622103276264816],[24.44694754234055,31.622102869436965],[24.446948043874375,31.62210253242593],[24.44694816010544,31.622103172143998],[24.446949188276996,31.622103414232097],[24.446951357681662,31.622103055858325],[24.44695207037411,31.62210311303331],[24.446953978014356,31.622103758198616],[24.44695589762588,31.622104148445576],[24.4469564353021,31.62210440102845],[24.44695693877493,31.622104375870375],[24.446957660074347,31.62210473502056],[24.446958768835653,31.62210493526585],[24.446958923783196,31.622105449211716],[24.446959362299697,31.622105752901632],[24.44696025323869,31.622105993027414],[24.4469612936666,31.622105806447834],[24.44696140645583,31.622106410213554],[24.44696178502997,31.622106547271454],[24.44696268220508,31.622106613954617],[24.446963484595194,31.62210683929515],[24.446963927624697,31.622106739471914],[24.446965930913827,31.622107553109366],[24.44696596561821,31.62210773888342],[24.44696692159128,31.62210824300699],[24.446967888529322,31.622108251957226],[24.446969363237248,31.622107750453736],[24.446969857243708,31.622107520379473],[24.446969856885254,31.622107525471687],[24.44696971101102,31.62211087057638]]]}},{"type":"Feature","id":"EG.IK","properties":{"hc-group":"admin1","hc-middle-x":0.41,"hc-middle-y":0.59,"hc-key":"eg-ik","hc-a2":"IK","labelrank":"9","hasc":"EG.IK","alt-name":"Alejandr¡a|Alexandria|Alexandrie|El Iskandariya","woe-id":"2345228","subregion":null,"fips":"EG06","postal-code":"IK","name":"Al Iskandariyah","country":"Egypt","type-en":"Governorate","region":null,"longitude":"29.754","woe-name":"Al Iskandariyah","latitude":"30.8251","woe-label":"Al Iskandariyah, EG, Egypt","type":"Muhafazah"},"geometry":{"type":"Polygon","coordinates":[[[24.44696971101102,31.62211087057638],[24.446969856885254,31.622107525471687],[24.446969857243708,31.622107520379473],[24.446970746956264,31.622107014278907],[24.446971121082253,31.622106875129415],[24.44697234949949,31.622106054289766],[24.446972469526774,31.622106300679125],[24.446971981475727,31.622106955248913],[24.44697127523955,31.622107230602666],[24.44697141391031,31.62210763638479],[24.44697119845889,31.622108151683147],[24.446971690897694,31.62210887723008],[24.446971805906756,31.622109194910692],[24.446971517535516,31.622109558240307],[24.446971154452203,31.62210979506233],[24.44697030431542,31.62211007833157],[24.44697006419607,31.622110265273378],[24.44696971101102,31.62211087057638]]]}},{"type":"Feature","id":"EG.JZ","properties":{"hc-group":"admin1","hc-middle-x":0.27,"hc-middle-y":0.77,"hc-key":"eg-jz","hc-a2":"JZ","labelrank":"6","hasc":"EG.JZ","alt-name":"El Giza|El G?zah|Gizeh|Giza|Guizèh","woe-id":"2345230","subregion":null,"fips":"EG08","postal-code":"JZ","name":"Al Jizah","country":"Egypt","type-en":"Governorate","region":null,"longitude":"29.7204","woe-name":"Al Jizah","latitude":"29.3499","woe-label":"Al Jizah, EG, Egypt","type":"Muhafazah"},"geometry":{"type":"Polygon","coordinates":[[[24.44697731682343,31.622112105845208],[24.44697767575225,31.622112267444095],[24.446977759857305,31.622112430210734],[24.446977645215355,31.62211295581552],[24.44697794141199,31.622113584366137],[24.446977915534895,31.622114206538566],[24.446981155917747,31.62211424577958],[24.446981163591946,31.622114476156863],[24.446980602798416,31.622118285393807],[24.446978755959424,31.622117709801735],[24.4469784177513,31.622117508385145],[24.446977575344704,31.622116493933564],[24.446977499626374,31.62211612717093],[24.44697683124279,31.622115949622795],[24.446976566442462,31.622114535641632],[24.44697620528954,31.622114235939055],[24.44697513216529,31.622114293065945],[24.446974037892783,31.6221146506345],[24.446972690022506,31.622115301775],[24.446970154105223,31.62211713358521],[24.446969845738728,31.62211837492567],[24.446969687932157,31.622118750095268],[24.446968700506403,31.622120559500377],[24.446967982372314,31.622121258429466],[24.44696716242252,31.6221217067971],[24.44696468507412,31.62212262169876],[24.446964294027705,31.622122831526028],[24.446963574032207,31.622123811447974],[24.446956704651104,31.62212331430059],[24.446959349316167,31.622119428481135],[24.44695977635394,31.622119046744867],[24.446960171775086,31.62211894446792],[24.446964318575137,31.62211832514868],[24.446965411483042,31.622117732417436],[24.446968972048243,31.622115089708284],[24.446973084420083,31.622113262487744],[24.446973318156527,31.62211291167435],[24.44697579535341,31.622111235269497],[24.446976218595037,31.622111246861895],[24.44697649528879,31.62211181307888],[24.44697694018397,31.62211185645152],[24.44697731682343,31.622112105845208]]]}},{"type":"Feature","id":"EG.FY","properties":{"hc-group":"admin1","hc-middle-x":0.61,"hc-middle-y":0.56,"hc-key":"eg-fy","hc-a2":"FY","labelrank":"9","hasc":"EG.FY","alt-name":"El Faiyum|el Fayoum|Faium|Faiy?m|Fayum|Fayoum|Fayyum","woe-id":"2345226","subregion":null,"fips":"EG04","postal-code":"FY","name":"Al Fayyum","country":"Egypt","type-en":"Governorate","region":null,"longitude":"30.4584","woe-name":"Al Fayyum","latitude":"29.2965","woe-label":"Al Fayyum, EG, Egypt","type":"Muhafazah"},"geometry":{"type":"Polygon","coordinates":[[[24.446970154105223,31.62211713358521],[24.446972690022506,31.622115301775],[24.446974037892783,31.6221146506345],[24.44697513216529,31.622114293065945],[24.44697620528954,31.622114235939055],[24.446976566442462,31.622114535641632],[24.44697683124279,31.622115949622795],[24.44697589342513,31.62211696942537],[24.44697551937252,31.622117277231926],[24.446975077634225,31.62211744356093],[24.446972911671182,31.62211783788743],[24.446972348039946,31.62211761463113],[24.446970154105223,31.62211713358521]]]}},{"type":"Feature","id":"EG.WJ","properties":{"hc-group":"admin1","hc-middle-x":0.5,"hc-middle-y":0.67,"hc-key":"eg-wj","hc-a2":"WJ","labelrank":"6","hasc":"EG.WJ","alt-name":null,"woe-id":"2345235","subregion":null,"fips":"EG13","postal-code":"WJ","name":"Al Wadi at Jadid","country":"Egypt","type-en":"Governorate","region":null,"longitude":"28.9556","woe-name":"Al Wadi at Jadid","latitude":"24.8314","woe-label":"Al Wadi al Jadid, EG, Egypt","type":"Muhafazah"},"geometry":{"type":"Polygon","coordinates":[[[24.446975456705086,31.622152277226455],[24.44697506795606,31.622152793814493],[24.44694113209506,31.622150492804032],[24.446944586868966,31.62212228600395],[24.446944682085817,31.62212229091145],[24.446956704651104,31.62212331430059],[24.446963574032207,31.622123811447974],[24.446974088684183,31.622124450475383],[24.446973993540738,31.622124614224994],[24.446974007096884,31.62212510044072],[24.4469744215286,31.622126000841877],[24.4469752313815,31.622126798966036],[24.446975942571292,31.622127132041573],[24.446976400806758,31.622127579847565],[24.44697697584786,31.622128744061772],[24.44697765441918,31.622129540530395],[24.446978122907062,31.622129927536296],[24.44698016658029,31.622132373570118],[24.44698095313003,31.622133078500507],[24.44698154235782,31.622133277522476],[24.446982267237654,31.622133161561457],[24.446983504119746,31.622132729571618],[24.44698421502024,31.62213281220762],[24.446984304290403,31.62213324099719],[24.446983625667368,31.62213439681557],[24.446982870462207,31.622134858741635],[24.44698258495847,31.622135181333434],[24.44698281914423,31.622136690840136],[24.44698308694603,31.622137128831174],[24.446983570203635,31.62213747571266],[24.446984271357078,31.622137951370647],[24.44698448072367,31.622138371017833],[24.4469845103408,31.622138883614863],[24.446984897098996,31.62214000746078],[24.446984617477206,31.622140585891014],[24.44698446004216,31.622142228534873],[24.446984523858386,31.62214259468406],[24.446984207023064,31.62214302298583],[24.446983347419554,31.62214310133899],[24.4469831496053,31.622143535775116],[24.446983780853337,31.62214415604067],[24.446983607987733,31.622144320895202],[24.446982617676937,31.622144474283044],[24.446982213726436,31.6221448674307],[24.44698187495685,31.622145861890335],[24.44698225862284,31.62214609631405],[24.4469836432105,31.622146111457653],[24.446983561692303,31.62214650589128],[24.44698291869769,31.622147070704056],[24.446981727648957,31.622149227363998],[24.446980223103015,31.62214871029927],[24.44697846532631,31.62214933009188],[24.446977485552893,31.622149248930278],[24.446977147422395,31.62214964035955],[24.44697724529953,31.62215037112436],[24.446976692002544,31.62215110410269],[24.446976265608136,31.62215130699744],[24.446975453612993,31.622151387804262],[24.446975041776636,31.62215189298099],[24.446975456705086,31.622152277226455]]]}},{"type":"Feature","id":"EG.MN","properties":{"hc-group":"admin1","hc-middle-x":0.63,"hc-middle-y":0.5,"hc-key":"eg-mn","hc-a2":"MN","labelrank":"9","hasc":"EG.MN","alt-name":"Minia|Minieh|Menia|Minya","woe-id":"2345232","subregion":null,"fips":"EG10","postal-code":"MN","name":"Al Minya","country":"Egypt","type-en":"Governorate","region":null,"longitude":"30.1604","woe-name":"Al Minya","latitude":"28.2141","woe-label":"Al Minya, EG, Egypt","type":"Muhafazah"},"geometry":{"type":"Polygon","coordinates":[[[24.446973993540738,31.622124614224994],[24.446974088684183,31.622124450475383],[24.446963574032207,31.622123811447974],[24.446964294027705,31.622122831526028],[24.44696468507412,31.62212262169876],[24.44696716242252,31.6221217067971],[24.446967982372314,31.622121258429466],[24.446968700506403,31.622120559500377],[24.446969687932157,31.622118750095268],[24.44697491274087,31.62211893760987],[24.446975788409414,31.62211930982685],[24.446975536470017,31.62212051318993],[24.44697496202498,31.62212154660994],[24.44697503208159,31.62212216350534],[24.4469752791626,31.6221226413141],[24.446975509979723,31.622124283525547],[24.446975387020085,31.62212475759457],[24.4469748296292,31.622124785084512],[24.446973993540738,31.622124614224994]]]}},{"type":"Feature","id":"EG.BN","properties":{"hc-group":"admin1","hc-middle-x":0.69,"hc-middle-y":0.7,"hc-key":"eg-bn","hc-a2":"BN","labelrank":"9","hasc":"EG.BN","alt-name":"Beni Suwayf|Beni Souef|Beni Suef","woe-id":"2345240","subregion":null,"fips":"EG18","postal-code":"BN","name":"Bani Suwayf","country":"Egypt","type-en":"Governorate","region":null,"longitude":"30.5041","woe-name":"Bani Suwayf","latitude":"28.8948","woe-label":"Bani Suwayf, EG, Egypt","type":"Muhafazah"},"geometry":{"type":"Polygon","coordinates":[[[24.446975788409414,31.62211930982685],[24.44697491274087,31.62211893760987],[24.446969687932157,31.622118750095268],[24.446969845738728,31.62211837492567],[24.446970154105223,31.62211713358521],[24.446972348039946,31.62211761463113],[24.446972911671182,31.62211783788743],[24.446975077634225,31.62211744356093],[24.44697551937252,31.622117277231926],[24.44697589342513,31.62211696942537],[24.44697683124279,31.622115949622795],[24.446977499626374,31.62211612717093],[24.446977575344704,31.622116493933564],[24.446977536058277,31.622116967204384],[24.446977172046466,31.622117556617283],[24.446976083876166,31.62211867599552],[24.446975788409414,31.62211930982685]]]}},{"type":"Feature","id":"EG.KS","properties":{"hc-group":"admin1","hc-middle-x":0.64,"hc-middle-y":0.53,"hc-key":"eg-ks","hc-a2":"KS","labelrank":"9","hasc":"EG.KS","alt-name":"Kafr-El-Sheikh|Kafr ash Shaikh|Kafr ash-Shayk|Kafr el Sheik|Kafr el Sheikh","woe-id":"2345243","subregion":null,"fips":"EG21","postal-code":"KS","name":"Kafr ash Shaykh","country":"Egypt","type-en":"Governorate","region":null,"longitude":"30.853","woe-name":"Kafr ash Shaykh","latitude":"31.2075","woe-label":"Kafr ash Shaykh, EG, Egypt","type":"Muhafazah"},"geometry":{"type":"Polygon","coordinates":[[[24.44697814992294,31.622107482708543],[24.446977267159017,31.62210738099329],[24.44697712957227,31.62210780831209],[24.446976111514765,31.622108016487616],[24.44697568375588,31.62210798421959],[24.4469754003942,31.622107427880337],[24.446974964529257,31.622107001670187],[24.44697456810193,31.622106863692153],[24.446974428070803,31.622106646936043],[24.446974584586055,31.62210620526069],[24.446974294202327,31.622106088080244],[24.446974029985082,31.62210559916688],[24.446973874393993,31.622105264062572],[24.446974505494897,31.62210554701399],[24.446975434502512,31.622105416020187],[24.44697639900052,31.622105205084242],[24.446974726906006,31.622105880399946],[24.44697568251632,31.62210596542688],[24.446976024304504,31.622105691732358],[24.446976484759624,31.62210585345318],[24.446976931231067,31.622105789582236],[24.44697722806244,31.62210539091368],[24.446977552001805,31.622105540487816],[24.446977616098682,31.622105308698888],[24.44697714223424,31.622104998076484],[24.4469775683434,31.62210496893101],[24.446978171623783,31.622105138013016],[24.446978796773646,31.622105420657675],[24.44697829086512,31.62210565011856],[24.44697840042846,31.622106299714385],[24.446978413345533,31.622107388960472],[24.44697814992294,31.622107482708543]]]}},{"type":"Feature","id":"EG.AT","properties":{"hc-group":"admin1","hc-middle-x":0.41,"hc-middle-y":0.43,"hc-key":"eg-at","hc-a2":"AT","labelrank":"7","hasc":"EG.AT","alt-name":"Asyiut|Assiout|Assiut|Assyut|Asyout","woe-id":"2345239","subregion":null,"fips":"EG17","postal-code":"AT","name":"Asyut","country":"Egypt","type-en":"Governorate","region":null,"longitude":"31.1431","woe-name":"Asyut","latitude":"27.2223","woe-label":"Asyut, EG, Egypt","type":"Muhafazah"},"geometry":{"type":"Polygon","coordinates":[[[24.446973993540738,31.622124614224994],[24.4469748296292,31.622124785084512],[24.446975387020085,31.62212475759457],[24.446975333896802,31.622125342587797],[24.446975536595392,31.622125772112724],[24.44697681069957,31.622126338629016],[24.44697727531796,31.62212695030654],[24.44697797274435,31.62212756376154],[24.4469786410676,31.62212884521902],[24.44697829734025,31.622128807060555],[24.44697792076981,31.622128302135124],[24.44697697584786,31.622128744061772],[24.446976400806758,31.622127579847565],[24.446975942571292,31.622127132041573],[24.4469752313815,31.622126798966036],[24.4469744215286,31.622126000841877],[24.446974007096884,31.62212510044072],[24.446973993540738,31.622124614224994]]]}},{"type":"Feature","id":"EG.AN","properties":{"hc-group":"admin1","hc-middle-x":0.81,"hc-middle-y":0.55,"hc-key":"eg-an","hc-a2":"AN","labelrank":"7","hasc":"EG.AN","alt-name":"Assouan|Assuã|Assuán|Syene","woe-id":"2345238","subregion":null,"fips":"EG16","postal-code":"AN","name":"Aswan","country":"Egypt","type-en":"Governorate","region":null,"longitude":"32.2794","woe-name":"Aswan","latitude":"22.6543","woe-label":"Aswan, EG, Egypt","type":"Muhafazah"},"geometry":{"type":"Polygon","coordinates":[[[24.44698387578029,31.622136867955877],[24.446984910482154,31.622137611229498],[24.446985263248443,31.62213811492804],[24.44698538901528,31.62213870403049],[24.446985419712103,31.622139625539667],[24.44698593753601,31.622140669258666],[24.446985862828274,31.622140966939888],[24.44698524098632,31.62214165549983],[24.44698499284296,31.622142465534235],[24.446985093661155,31.622143324218268],[24.446985499416936,31.62214417817588],[24.4469858158291,31.622144434686863],[24.44698589907916,31.622145118701464],[24.44698572112624,31.622145610378983],[24.44698606056104,31.622146558021843],[24.44698578710623,31.622147218541233],[24.446985178958553,31.622147882253437],[24.44698524019225,31.622148115391173],[24.44698602480306,31.62214850846854],[24.446986348673505,31.622148913574403],[24.446986547144274,31.622149572863187],[24.446986315126555,31.62214972955834],[24.44698556521582,31.622149098066224],[24.446984734935644,31.622149014388114],[24.446983937489904,31.62214854909935],[24.44698359254899,31.62214903728104],[24.44698353849288,31.622149550676312],[24.44698331192525,31.62214979964505],[24.446982191701764,31.62215061072896],[24.44698148073205,31.622150783624637],[24.446980972525743,31.622150706324735],[24.446980172855923,31.622150102932242],[24.44697989631324,31.622150298218237],[24.446979491650136,31.622151125739144],[24.446978923078195,31.62215156661997],[24.44697846577976,31.622151614600774],[24.44697810778795,31.622151948788645],[24.446976957087912,31.622152344334562],[24.44697640135089,31.622152857426777],[24.44697607999391,31.62215284086407],[24.446976425003974,31.622152097150668],[24.446976399835084,31.62215186076101],[24.446975987346626,31.622151696401644],[24.446975456705086,31.622152277226455],[24.446975041776636,31.62215189298099],[24.446975453612993,31.622151387804262],[24.446976265608136,31.62215130699744],[24.446976692002544,31.62215110410269],[24.44697724529953,31.62215037112436],[24.446977147422395,31.62214964035955],[24.446977485552893,31.622149248930278],[24.44697846532631,31.62214933009188],[24.446980223103015,31.62214871029927],[24.446981727648957,31.622149227363998],[24.44698291869769,31.622147070704056],[24.446983561692303,31.62214650589128],[24.4469836432105,31.622146111457653],[24.44698225862284,31.62214609631405],[24.44698187495685,31.622145861890335],[24.446982213726436,31.6221448674307],[24.446982617676937,31.622144474283044],[24.446983607987733,31.622144320895202],[24.446983780853337,31.62214415604067],[24.4469831496053,31.622143535775116],[24.446983347419554,31.62214310133899],[24.446984207023064,31.62214302298583],[24.446984523858386,31.62214259468406],[24.44698446004216,31.622142228534873],[24.446984617477206,31.622140585891014],[24.446984897098996,31.62214000746078],[24.4469845103408,31.622138883614863],[24.44698448072367,31.622138371017833],[24.446984271357078,31.622137951370647],[24.446983570203635,31.62213747571266],[24.446983763289005,31.622137363007287],[24.44698387578029,31.622136867955877]]]}},{"type":"Feature","id":"EG.QN","properties":{"hc-group":"admin1","hc-middle-x":0.35,"hc-middle-y":0.14,"hc-key":"eg-qn","hc-a2":"QN","labelrank":"9","hasc":"EG.QN","alt-name":"Kena|Qena|Quena","woe-id":"2345245","subregion":null,"fips":"EG02","postal-code":"QN","name":"Qina","country":"Egypt","type-en":"Governorate","region":null,"longitude":"32.4417","woe-name":"Qina","latitude":"26.1216","woe-label":"Qina, EG, Egypt","type":"Muhafazah"},"geometry":{"type":"Polygon","coordinates":[[[24.44698387578029,31.622136867955877],[24.446983763289005,31.622137363007287],[24.446983570203635,31.62213747571266],[24.44698308694603,31.622137128831174],[24.44698281914423,31.622136690840136],[24.44698258495847,31.622135181333434],[24.446982870462207,31.622134858741635],[24.446983625667368,31.62213439681557],[24.446984304290403,31.62213324099719],[24.44698421502024,31.62213281220762],[24.446983504119746,31.622132729571618],[24.446982267237654,31.622133161561457],[24.44698154235782,31.622133277522476],[24.44698095313003,31.622133078500507],[24.44698016658029,31.622132373570118],[24.446981165061764,31.622131934403896],[24.446981759670567,31.622132481231212],[24.446982030836512,31.6221323623287],[24.44698327818691,31.622131951321204],[24.446984037196778,31.622131944444067],[24.44698444100906,31.622132062359864],[24.446985030742177,31.62213259360375],[24.446985213078545,31.62213305785416],[24.44698524613762,31.62213360640353],[24.44698484635037,31.622134449507897],[24.44698372526772,31.62213535765096],[24.44698349246406,31.62213578006232],[24.44698355477744,31.622136422112177],[24.44698387578029,31.622136867955877]],[[24.446983745910646,31.622134724987355],[24.446983813306982,31.62213461602541],[24.446983709055562,31.622134569766686],[24.446983569028742,31.622134777199378],[24.446983745910646,31.622134724987355]]]}},{"type":"Feature","id":"EG.SJ","properties":{"hc-group":"admin1","hc-middle-x":0.44,"hc-middle-y":0.45,"hc-key":"eg-sj","hc-a2":"SJ","labelrank":"6","hasc":"EG.SJ","alt-name":"Girga|Girgeh|Sawh?j|Sohag|Suhag","woe-id":"2345246","subregion":null,"fips":"EG24","postal-code":"SJ","name":"Suhaj","country":"Egypt","type-en":"Governorate","region":null,"longitude":"31.8037","woe-name":"Suhaj","latitude":"26.5104","woe-label":"Suhaj, EG, Egypt","type":"Muhafazah"},"geometry":{"type":"Polygon","coordinates":[[[24.446982030836512,31.6221323623287],[24.446981759670567,31.622132481231212],[24.446981165061764,31.622131934403896],[24.44698016658029,31.622132373570118],[24.446978122907062,31.622129927536296],[24.44697765441918,31.622129540530395],[24.44697697584786,31.622128744061772],[24.44697792076981,31.622128302135124],[24.44697829734025,31.622128807060555],[24.4469786410676,31.62212884521902],[24.446979698498218,31.622129604996207],[24.44698008001782,31.622130294162115],[24.446980101960733,31.622130576381885],[24.446980433073428,31.62213104830018],[24.446981293039613,31.622131389043627],[24.446982030836512,31.6221323623287]]]}}]}